{
  "norad_id": 53924,
  "name": "STARLINK-5001",
  "history": [
    {
      "epoch": "2026-03-28T17:57:56.835072Z",
      "apogee_km": 540.6284223743141,
      "perigee_km": 538.8664372100457,
      "latitude_deg": -4.087826352200127e-05,
      "longitude_deg": 127.8127922614433,
      "height_km": 540.5689911035518,
      "semi_major_axis_km": 6917.88442979218,
      "eccentricity": 0.00012735,
      "inclination_deg": 53.2159,
      "raan_deg": 223.4642,
      "arg_perigee_deg": 85.174,
      "mean_anomaly_deg": 274.9397,
      "mean_motion_rev_day": 15.08838678
    },
    {
      "epoch": "2026-03-29T01:54:52.621344Z",
      "apogee_km": 540.637306361783,
      "perigee_km": 538.8607932241966,
      "latitude_deg": 1.6571161796254916e-05,
      "longitude_deg": 6.76714529257983,
      "height_km": 540.576468921607,
      "semi_major_axis_km": 6917.88604979299,
      "eccentricity": 0.0001284,
      "inclination_deg": 53.2159,
      "raan_deg": 221.9774,
      "arg_perigee_deg": 85.5942,
      "mean_anomaly_deg": 274.5197,
      "mean_motion_rev_day": 15.08838148
    },
    {
      "epoch": "2026-03-30T01:45:39.942144Z",
      "apogee_km": 540.6692261274156,
      "perigee_km": 538.8323885568097,
      "latitude_deg": 2.174604416403796e-05,
      "longitude_deg": 3.6297396401516036,
      "height_km": 540.4026889857918,
      "semi_major_axis_km": 6917.887807342112,
      "eccentricity": 0.00013276,
      "inclination_deg": 53.2168,
      "raan_deg": 217.5165,
      "arg_perigee_deg": 74.6013,
      "mean_anomaly_deg": 285.5126,
      "mean_motion_rev_day": 15.08837573
    },
    {
      "epoch": "2026-03-30T14:28:45.096672Z",
      "apogee_km": 540.6299437305133,
      "perigee_km": 538.8741834861694,
      "latitude_deg": -3.266341685107962e-05,
      "longitude_deg": 169.95800885136322,
      "height_km": 540.5402540438407,
      "semi_major_axis_km": 6917.8890636083415,
      "eccentricity": 0.0001269,
      "inclination_deg": 53.2159,
      "raan_deg": 215.1386,
      "arg_perigee_deg": 82.9662,
      "mean_anomaly_deg": 277.1474,
      "mean_motion_rev_day": 15.08837162
    },
    {
      "epoch": "2026-03-31T07:57:59.263488Z",
      "apogee_km": 540.5413974935691,
      "perigee_km": 538.9309166226049,
      "latitude_deg": 8.032712825942543e-06,
      "longitude_deg": -96.33956496469166,
      "height_km": 540.5086984105401,
      "semi_major_axis_km": 6917.873157058087,
      "eccentricity": 0.0001164,
      "inclination_deg": 53.2166,
      "raan_deg": 211.8682,
      "arg_perigee_deg": 81.1871,
      "mean_anomaly_deg": 278.9253,
      "mean_motion_rev_day": 15.08842366
    }
  ]
}